{
  "type": "FeatureCollection",
  "features": [
    {
      "type": "Feature",
      "properties": {
        "norad_id": 32315,
        "name": "FENGYUN 1C DEB",
        "group": "fengyun-1c-debris",
        "lat": -23.14359186313037,
        "lon": -62.04287343552369,
        "alt_km": 965.7741523376635,
        "timestamp": "2025-12-06T05:40:09.530425+00:00",
        "meta_object_name": "FENGYUN 1C DEB",
        "meta_object_id": "1999-025CXG",
        "meta_epoch": "2025-11-20T16:04:27.676128",
        "meta_mean_motion": 13.66155502,
        "meta_eccentricity": 0.02289149,
        "meta_inclination": 100.8052,
        "meta_ra_of_asc_node": 105.2905,
        "meta_arg_of_pericenter": 168.6,
        "meta_mean_anomaly": 192.0449,
        "meta_ephemeris_type": 0,
        "meta_classification_type": "U",
        "meta_norad_cat_id": 32315,
        "meta_element_set_no": 999,
        "meta_rev_at_epoch": 60787,
        "meta_bstar": 0.00024184327,
        "meta_mean_motion_dot": 1.85e-06,
        "meta_mean_motion_ddot": 0,
        "tle_line1": "1 32315U 99025CXG 25324.66976477  .00000185  00000+0  24184-3 0  9992",
        "tle_line2": "2 32315 100.8052 105.2905 0228914 168.6000 192.0449 13.66155502607872"
      },
      "geometry": {
        "type": "Point",
        "coordinates": [
          -62.04287343552369,
          -23.14359186313037
        ]
      }
    },
    {
      "type": "Feature",
      "properties": {
        "norad_id": 32316,
        "name": "FENGYUN 1C DEB",
        "group": "fengyun-1c-debris",
        "lat": -73.955946412871,
        "lon": 41.579059880931645,
        "alt_km": 719.7341959764835,
        "timestamp": "2025-12-06T05:40:09.530438+00:00",
        "meta_object_name": "FENGYUN 1C DEB",
        "meta_object_id": "1999-025CXH",
        "meta_epoch": "2025-12-02T20:07:23.464992",
        "meta_mean_motion": 14.51637168,
        "meta_eccentricity": 0.00267203,
        "meta_inclination": 99.5304,
        "meta_ra_of_asc_node": 1.9849,
        "meta_arg_of_pericenter": 359.4201,
        "meta_mean_anomaly": 177.2227,
        "meta_ephemeris_type": 0,
        "meta_classification_type": "U",
        "meta_norad_cat_id": 32316,
        "meta_element_set_no": 999,
        "meta_rev_at_epoch": 95633,
        "meta_bstar": 0.002174683,
        "meta_mean_motion_dot": 8.712e-05,
        "meta_mean_motion_ddot": 0,
        "tle_line1": "1 32316U 99025CXH 25336.83846603  .00008712  00000+0  21747-2 0  9997",
        "tle_line2": "2 32316  99.5304   1.9849 0026720 359.4201 177.2227 14.51637168956335"
      },
      "geometry": {
        "type": "Point",
        "coordinates": [
          41.579059880931645,
          -73.955946412871
        ]
      }
    },
    {
      "type": "Feature",
      "properties": {
        "norad_id": 32320,
        "name": "FENGYUN 1C DEB",
        "group": "fengyun-1c-debris",
        "lat": -21.252005318204937,
        "lon": 11.919982358222954,
        "alt_km": 805.1481410039869,
        "timestamp": "2025-12-06T05:40:09.530448+00:00",
        "meta_object_name": "FENGYUN 1C DEB",
        "meta_object_id": "1999-025CXM",
        "meta_epoch": "2025-12-01T19:23:39.723360",
        "meta_mean_motion": 14.36057731,
        "meta_eccentricity": 0.00558837,
        "meta_inclination": 100.3751,
        "meta_ra_of_asc_node": 190.6853,
        "meta_arg_of_pericenter": 78.2143,
        "meta_mean_anomaly": 282.5298,
        "meta_ephemeris_type": 0,
        "meta_classification_type": "U",
        "meta_norad_cat_id": 32320,
        "meta_element_set_no": 999,
        "meta_rev_at_epoch": 62016,
        "meta_bstar": 0.00080169861,
        "meta_mean_motion_dot": 2.315e-05,
        "meta_mean_motion_ddot": 0,
        "tle_line1": "1 32320U 99025CXM 25335.80809865  .00002315  00000+0  80170-3 0  9996",
        "tle_line2": "2 32320 100.3751 190.6853 0055883  78.2143 282.5298 14.36057731620163"
      },
      "geometry": {
        "type": "Point",
        "coordinates": [
          11.919982358222954,
          -21.252005318204937
        ]
      }
    },
    {
      "type": "Feature",
      "properties": {
        "norad_id": 32322,
        "name": "FENGYUN 1C DEB",
        "group": "fengyun-1c-debris",
        "lat": 20.089185828106906,
        "lon": 46.59269107920087,
        "alt_km": 904.3060389355096,
        "timestamp": "2025-12-06T05:40:09.530459+00:00",
        "meta_object_name": "FENGYUN 1C DEB",
        "meta_object_id": "1999-025CXP",
        "meta_epoch": "2025-12-04T11:30:45.940032",
        "meta_mean_motion": 13.3411511,
        "meta_eccentricity": 0.0418673,
        "meta_inclination": 98.3703,
        "meta_ra_of_asc_node": 222.0644,
        "meta_arg_of_pericenter": 118.495,
        "meta_mean_anomaly": 245.9008,
        "meta_ephemeris_type": 0,
        "meta_classification_type": "U",
        "meta_norad_cat_id": 32322,
        "meta_element_set_no": 999,
        "meta_rev_at_epoch": 60269,
        "meta_bstar": 0.0016191,
        "meta_mean_motion_dot": 1.292e-05,
        "meta_mean_motion_ddot": 0,
        "tle_line1": "1 32322U 99025CXP 25338.47969838  .00001292  00000+0  16191-2 0  9995",
        "tle_line2": "2 32322  98.3703 222.0644 0418673 118.4950 245.9008 13.34115110602692"
      },
      "geometry": {
        "type": "Point",
        "coordinates": [
          46.59269107920087,
          20.089185828106906
        ]
      }
    },
    {
      "type": "Feature",
      "properties": {
        "norad_id": 32323,
        "name": "FENGYUN 1C DEB",
        "group": "fengyun-1c-debris",
        "lat": -21.311800780155586,
        "lon": 127.23989036266153,
        "alt_km": 949.6835646536601,
        "timestamp": "2025-12-06T05:40:09.530469+00:00",
        "meta_object_name": "FENGYUN 1C DEB",
        "meta_object_id": "1999-025CXQ",
        "meta_epoch": "2025-11-27T08:31:37.777440",
        "meta_mean_motion": 13.96310713,
        "meta_eccentricity": 0.01563544,
        "meta_inclination": 98.5696,
        "meta_ra_of_asc_node": 115.5941,
        "meta_arg_of_pericenter": 252.8199,
        "meta_mean_anomaly": 105.5797,
        "meta_ephemeris_type": 0,
        "meta_classification_type": "U",
        "meta_norad_cat_id": 32323,
        "meta_element_set_no": 999,
        "meta_rev_at_epoch": 60055,
        "meta_bstar": 0.00293216,
        "meta_mean_motion_dot": 4.437e-05,
        "meta_mean_motion_ddot": 0,
        "tle_line1": "1 32323U 99025CXQ 25331.35529835  .00004437  00000+0  29322-2 0  9999",
        "tle_line2": "2 32323  98.5696 115.5941 0156354 252.8199 105.5797 13.96310713600558"
      },
      "geometry": {
        "type": "Point",
        "coordinates": [
          127.23989036266153,
          -21.311800780155586
        ]
      }
    },
    {
      "type": "Feature",
      "properties": {
        "norad_id": 32324,
        "name": "FENGYUN 1C DEB",
        "group": "fengyun-1c-debris",
        "lat": -40.48004680300433,
        "lon": -106.63176351176452,
        "alt_km": 905.3427781222235,
        "timestamp": "2025-12-06T05:40:09.530480+00:00",
        "meta_object_name": "FENGYUN 1C DEB",
        "meta_object_id": "1999-025CXR",
        "meta_epoch": "2025-12-01T05:20:15.314208",
        "meta_mean_motion": 14.09115713,
        "meta_eccentricity": 0.0050455,
        "meta_inclination": 99.5337,
        "meta_ra_of_asc_node": 76.3137,
        "meta_arg_of_pericenter": 55.9833,
        "meta_mean_anomaly": 304.6112,
        "meta_ephemeris_type": 0,
        "meta_classification_type": "U",
        "meta_norad_cat_id": 32324,
        "meta_element_set_no": 999,
        "meta_rev_at_epoch": 63836,
        "meta_bstar": 0.00061368,
        "meta_mean_motion_dot": 1.029e-05,
        "meta_mean_motion_ddot": 0,
        "tle_line1": "1 32324U 99025CXR 25335.22239947  .00001029  00000+0  61368-3 0  9993",
        "tle_line2": "2 32324  99.5337  76.3137 0050455  55.9833 304.6112 14.09115713638366"
      },
      "geometry": {
        "type": "Point",
        "coordinates": [
          -106.63176351176452,
          -40.48004680300433
        ]
      }
    },
    {
      "type": "Feature",
      "properties": {
        "norad_id": 32326,
        "name": "FENGYUN 1C DEB",
        "group": "fengyun-1c-debris",
        "lat": -36.22474052088791,
        "lon": -83.35889455852342,
        "alt_km": 1284.9188155226338,
        "timestamp": "2025-12-06T05:40:09.530491+00:00",
        "meta_object_name": "FENGYUN 1C DEB",
        "meta_object_id": "1999-025CXT",
        "meta_epoch": "2025-11-30T02:32:37.979232",
        "meta_mean_motion": 13.69261307,
        "meta_eccentricity": 0.03856265,
        "meta_inclination": 98.486,
        "meta_ra_of_asc_node": 264.9459,
        "meta_arg_of_pericenter": 173.0082,
        "meta_mean_anomaly": 187.6669,
        "meta_ephemeris_type": 0,
        "meta_classification_type": "U",
        "meta_norad_cat_id": 32326,
        "meta_element_set_no": 999,
        "meta_rev_at_epoch": 63009,
        "meta_bstar": 0.00044957354,
        "meta_mean_motion_dot": 6.22e-06,
        "meta_mean_motion_ddot": 0,
        "tle_line1": "1 32326U 99025CXT 25334.10599513  .00000622  00000+0  44957-3 0  9992",
        "tle_line2": "2 32326  98.4860 264.9459 0385626 173.0082 187.6669 13.69261307630092"
      },
      "geometry": {
        "type": "Point",
        "coordinates": [
          -83.35889455852342,
          -36.22474052088791
        ]
      }
    }
  ]
}